CZ-2D R/B               
1 28738U 05024B   26124.54632421  .00047482  00000+0  47848-3 0  9999
2 28738  97.3524 141.9437 0005892 148.9191 211.2419 15.65245968148505
ALOS (DAICHI)           
1 28931U 06002A   26124.79934006  .00001174  00000+0  20422-3 0  9999
2 28931  98.1298  80.5131 0002091  95.7965 264.3479 14.69961431 81720
H-2A R/B                
1 28932U 06002B   26124.41125484  .00007049  00000+0  34315-3 0  9994
2 28932  98.2516 276.3137 0052041  52.9302 307.6671 15.17534642102886
RESURS-DK 1             
1 29228U 06021A   26124.86712433  .00002248  00000+0  13298-3 0  9992
2 29228  69.9327  91.6745 0004110 333.2243  26.8710 15.13035350 96026
CZ-4B R/B               
1 29507U 06046C   26124.66985639  .00005032  00000+0  25115-3 0  9992
2 29507  97.5486 169.4148 0034421  74.6099 285.8933 15.17440204 68534
CZ-2C R/B               
1 31114U 07010B   26124.80422387  .00000117  00000+0  72276-4 0  9993
2 31114  98.4048 235.2881 0059972 130.4293 230.2137 14.20265329987688
COSMO-SKYMED 1          
1 31598U 07023A   26124.82145154  .00003247  00000+0  28813-3 0  9993
2 31598  97.8875 316.3167 0001851  90.5735 269.5698 14.96901800 23304
COSMOS 2428             
1 31792U 07029A   26124.88754455 -.00000217  00000+0 -90850-4 0  9998
2 31792  70.9395  85.3824 0008592 212.0751 147.9848 14.12942798972038
SL-16 R/B               
1 31793U 07029B   26124.58024483  .00000206  00000+0  13172-3 0  9994
2 31793  70.9772  54.8951 0002595 268.8653 263.9180 14.14850293973272
KORONAS-FOTON           
1 33504U 09003A   26125.20956399  .00015405  00000+0  32727-3 0  9994
2 33504  82.4312 217.0542 0009173 314.3962  45.6534 15.44831268954463
CZ-2C R/B               
1 37731U 11030B   26124.87188883  .00000947  00000+0  12523-3 0  9997
2 37731  97.8628  81.0526 0052676 165.9317 210.6404 14.81374948798418
H-2A R/B                
1 38341U 12025E   26124.93717703  .00003153  00000+0  28513-3 0  9994
2 38341  98.4813  96.5355 0045518 127.3897 233.1479 14.95490823756627
SHIJIAN-16 (SJ-16)      
1 39358U 13057A   26125.20643229  .00000436  00000+0  45273-4 0  9995
2 39358  74.9723  78.0791 0016519 330.0412  29.9830 14.92494733679930
SL-4 R/B                
1 39679U 14021B   26125.20979977  .00017615  00000+0  36972-3 0  9997
2 39679  51.6072  61.1519 0092234 309.7359  49.5524 15.40968679664983
ALOS-2                  
1 39766U 14029A   26125.19226316  .00001271  00000+0  17689-3 0  9997
2 39766  97.9215 222.9703 0001638  84.6286 275.5112 14.79493044645220
YAOGAN-29               
1 41038U 15069A   26125.20009216  .00000125  00000+0  21994-4 0  9999
2 41038  98.0056 153.7598 0002316 124.2977 235.8456 14.83049842564256
ASTRO-H (HITOMI)        
1 41337U 16012A   26124.81497764  .00003031  00000+0  17460-3 0  9996
2 41337  31.0006 354.2592 0009512 177.7063 182.3620 15.10330750560725
HXMT (HUIYAN)           
1 42758U 17034A   26125.17499116  .00004951  00000+0  24675-3 0  9990
2 42758  43.0152  62.4689 0032798 233.9191 125.8619 15.18087101491126
SAOCOM 1A               
1 43641U 18076A   26124.79425731  .00000243  00000+0  37030-4 0  9998
2 43641  97.8884 312.1721 0001565  88.0437 272.0955 14.82161580409670
H-2A R/B                
1 43682U 18084L   26125.10455163  .00019691  00000+0  43554-3 0  9994
2 43682  98.8636 354.6326 0023890 184.0303 176.0752 15.43584389414473
SAOCOM 1B               
1 46265U 20059A   26125.16309514  .00000550  00000+0  75689-4 0  9992
2 46265  97.8887 311.6287 0001596  81.6165 278.5229 14.82156999307119
CSS (TIANHE)            
1 48274U 21035A   26125.17049097  .00034872  00000+0  37022-3 0  9999
2 48274  41.4666 223.7918 0005355 334.0560  26.0011 15.63334230286449
COSMOS 2550             
1 48865U 21056A   26125.05229304 -.00000084  00000+0  32899-5 0  9994
2 48865  67.1434 230.3860 0008452 270.0790  89.9396 15.33834130272101
CZ-2C R/B               
1 52794U 22058K   26125.14023466  .00057762  00000+0  71491-3 0  9997
2 52794  50.1881  26.9626 0037199  83.4110 277.1095 15.58636569218926
CZ-2C R/B               
1 54039U 22132E   26124.97718564  .00049574  00000+0  46209-3 0  9995
2 54039  97.2927 130.2284 0013655 230.4430 129.5625 15.67089868199170
GSLV R/B                
1 54149U 22138AN  26124.53900024  .00002788  00000+0  23876-3 0  9990
2 54149  87.3800 147.6438 0019276 313.6614  46.3019 14.97067728192289
XRISM                   
1 57800U 23137A   26124.82644316  .00005390  00000+0  29965-3 0  9995
2 57800  31.0024 280.3933 0007663 246.9002 113.0830 15.12104501146293
ACS3                    
1 59588U 24077B   26124.03319306  .00059133  00000+0  45353-1 0  9996
2 59588  97.1809  52.7168 0050131 341.3473  18.5853 13.92218855101898
HTV-X1                  
1 66174U 25241A   26125.08018972  .00014346  00000+0  15867-3 0  9996
2 66174  51.6334 158.3806 0007418  26.0034 334.1332 15.63273779 29600
SZ-21 MODULE            
1 66515U 25246C   26124.57811656  .00040277  00000+0  28813-3 0  9990
2 66515  41.4725 218.1828 0002856  26.5276 333.5713 15.72943278 26862
